2024-022D               
1 58902U 24022D   24031.77712098 -.00000064  00000+0  00000+0 0  9994
2 58902  97.4850 234.7151 0012151 277.4673 142.7499 15.12181813    72
2024-022E               
1 58903U 24022E   24031.77715484 -.00000065  00000+0  00000+0 0  9998
2 58903  97.4893 234.7244 0012509 270.4935 150.2190 15.12361804    76
2024-022F               
1 58904U 24022F   24032.98263910  .01894905  22167-5  13521-2 0  9998
2 58904  97.4921 236.0770 0238722 210.7565 302.1818 15.77553663   264
2024-023A               
1 58905U 24023A   24034.59051134 -.00000239  00000+0  00000+0 0  9992
2 58905  49.9967  74.2375 0007909 266.0937 230.9031 14.89135506    98
2024-023B               
1 58906U 24023B   24034.65965693 -.00000240  00000+0  00000+0 0  9996
2 58906  50.0007  73.9148 0009844 267.1360 240.8553 14.89146174    95
2024-023C               
1 58907U 24023C   24034.58866292 -.00000240  00000+0  00000+0 0  9994
2 58907  50.0007  74.2452 0007966 275.1158 212.3452 14.89316660    85
2024-023D               
1 58908U 24023D   24034.58853913 -.00000240  00000+0  00000+0 0  9991
2 58908  49.9927  74.2477 0008445 273.6823 213.2271 14.89365316    87
2024-023E               
1 58909U 24023E   24034.66014038 -.00000240  00000+0  00000+0 0  9998
2 58909  50.0075  73.9086 0008341 273.1807 238.0045 14.89402812    97
2024-023F               
1 58910U 24023F   24034.66002733 -.00000241  00000+0  00000+0 0  9990
2 58910  49.9904  73.9108 0009514 277.3992 233.4088 14.89495339    98
2024-023G               
1 58911U 24023G   24034.65994253 -.00000241  00000+0  00000+0 0  9997
2 58911  50.0112  73.9101 0008989 284.9074 226.0147 14.89732116    97
2024-023H               
1 58912U 24023H   24034.65994767 -.00000242  00000+0  00000+0 0  9999
2 58912  49.9922  73.9102 0010507 284.6814 226.5527 14.89848627    95
2024-023J               
1 58913U 24023J   24034.59015113 -.00000242  00000+0  00000+0 0  9992
2 58913  50.0053  74.2329 0010311 286.9216 209.8520 14.89921468    84
2024-023K               
1 58914U 24023K   24034.65990785 -.00000242  00000+0  00000+0 0  9997
2 58914  49.9955  73.9111 0010905 287.4817 223.8595 14.89977550    92
2024-023L               
1 58915U 24023L   24034.65967660 -.00000243  00000+0  00000+0 0  9995
2 58915  49.9994  73.9057 0011324 291.1410 219.3031 14.90123857    92
