[
  {
    "OBJECT_NAME": "2024-022D",
    "OBJECT_ID": "2024-022D",
    "EPOCH": "2024-01-31T18:39:03.252672",
    "MEAN_MOTION": 15.12181813,
    "ECCENTRICITY": 0.0012151,
    "INCLINATION": 97.485,
    "RA_OF_ASC_NODE": 234.7151,
    "ARG_OF_PERICENTER": 277.4673,
    "MEAN_ANOMALY": 142.7499,
    "EPHEMERIS_TYPE": 0,
    "CLASSIFICATION_TYPE": "U",
    "NORAD_CAT_ID": 58902,
    "ELEMENT_SET_NO": 999,
    "REV_AT_EPOCH": 7,
    "BSTAR": 0,
    "MEAN_MOTION_DOT": -6.4e-07,
    "MEAN_MOTION_DDOT": 0
  },
  {
    "OBJECT_NAME": "2024-022E",
    "OBJECT_ID": "2024-022E",
    "EPOCH": "2024-01-31T18:39:06.178176",
    "MEAN_MOTION": 15.12361804,
    "ECCENTRICITY": 0.0012509,
    "INCLINATION": 97.4893,
    "RA_OF_ASC_NODE": 234.7244,
    "ARG_OF_PERICENTER": 270.4935,
    "MEAN_ANOMALY": 150.219,
    "EPHEMERIS_TYPE": 0,
    "CLASSIFICATION_TYPE": "U",
    "NORAD_CAT_ID": 58903,
    "ELEMENT_SET_NO": 999,
    "REV_AT_EPOCH": 7,
    "BSTAR": 0,
    "MEAN_MOTION_DOT": -6.5e-07,
    "MEAN_MOTION_DDOT": 0
  },
  {
    "OBJECT_NAME": "2024-022F",
    "OBJECT_ID": "2024-022F",
    "EPOCH": "2024-02-01T23:35:00.018240",
    "MEAN_MOTION": 15.77553663,
    "ECCENTRICITY": 0.0238722,
    "INCLINATION": 97.4921,
    "RA_OF_ASC_NODE": 236.077,
    "ARG_OF_PERICENTER": 210.7565,
    "MEAN_ANOMALY": 302.1818,
    "EPHEMERIS_TYPE": 0,
    "CLASSIFICATION_TYPE": "U",
    "NORAD_CAT_ID": 58904,
    "ELEMENT_SET_NO": 999,
    "REV_AT_EPOCH": 26,
    "BSTAR": 0.0013521,
    "MEAN_MOTION_DOT": 0.01894905,
    "MEAN_MOTION_DDOT": 2.2167e-06
  },
  {
    "OBJECT_NAME": "2024-023A",
    "OBJECT_ID": "2024-023A",
    "EPOCH": "2024-02-03T14:10:20.179776",
    "MEAN_MOTION": 14.89135506,
    "ECCENTRICITY": 0.0007909,
    "INCLINATION": 49.9967,
    "RA_OF_ASC_NODE": 74.2375,
    "ARG_OF_PERICENTER": 266.0937,
    "MEAN_ANOMALY": 230.9031,
    "EPHEMERIS_TYPE": 0,
    "CLASSIFICATION_TYPE": "U",
    "NORAD_CAT_ID": 58905,
    "ELEMENT_SET_NO": 999,
    "REV_AT_EPOCH": 9,
    "BSTAR": 0,
    "MEAN_MOTION_DOT": -2.39e-06,
    "MEAN_MOTION_DDOT": 0
  },
  {
    "OBJECT_NAME": "2024-023B",
    "OBJECT_ID": "2024-023B",
    "EPOCH": "2024-02-03T15:49:54.358752",
    "MEAN_MOTION": 14.89146174,
    "ECCENTRICITY": 0.0009844,
    "INCLINATION": 50.0007,
    "RA_OF_ASC_NODE": 73.9148,
    "ARG_OF_PERICENTER": 267.136,
    "MEAN_ANOMALY": 240.8553,
    "EPHEMERIS_TYPE": 0,
    "CLASSIFICATION_TYPE": "U",
    "NORAD_CAT_ID": 58906,
    "ELEMENT_SET_NO": 999,
    "REV_AT_EPOCH": 9,
    "BSTAR": 0,
    "MEAN_MOTION_DOT": -2.4e-06,
    "MEAN_MOTION_DDOT": 0
  },
  {
    "OBJECT_NAME": "2024-023C",
    "OBJECT_ID": "2024-023C",
    "EPOCH": "2024-02-03T14:07:40.476288",
    "MEAN_MOTION": 14.8931666,
    "ECCENTRICITY": 0.0007966,
    "INCLINATION": 50.0007,
    "RA_OF_ASC_NODE": 74.2452,
    "ARG_OF_PERICENTER": 275.1158,
    "MEAN_ANOMALY": 212.3452,
    "EPHEMERIS_TYPE": 0,
    "CLASSIFICATION_TYPE": "U",
    "NORAD_CAT_ID": 58907,
    "ELEMENT_SET_NO": 999,
    "REV_AT_EPOCH": 8,
    "BSTAR": 0,
    "MEAN_MOTION_DOT": -2.4e-06,
    "MEAN_MOTION_DDOT": 0
  },
  {
    "OBJECT_NAME": "2024-023D",
    "OBJECT_ID": "2024-023D",
    "EPOCH": "2024-02-03T14:07:29.780832",
    "MEAN_MOTION": 14.89365316,
    "ECCENTRICITY": 0.0008445,
    "INCLINATION": 49.9927,
    "RA_OF_ASC_NODE": 74.2477,
    "ARG_OF_PERICENTER": 273.6823,
    "MEAN_ANOMALY": 213.2271,
    "EPHEMERIS_TYPE": 0,
    "CLASSIFICATION_TYPE": "U",
    "NORAD_CAT_ID": 58908,
    "ELEMENT_SET_NO": 999,
    "REV_AT_EPOCH": 8,
    "BSTAR": 0,
    "MEAN_MOTION_DOT": -2.4e-06,
    "MEAN_MOTION_DDOT": 0
  },
  {
    "OBJECT_NAME": "2024-023E",
    "OBJECT_ID": "2024-023E",
    "EPOCH": "2024-02-03T15:50:36.128832",
    "MEAN_MOTION": 14.89402812,
    "ECCENTRICITY": 0.0008341,
    "INCLINATION": 50.0075,
    "RA_OF_ASC_NODE": 73.9086,
    "ARG_OF_PERICENTER": 273.1807,
    "MEAN_ANOMALY": 238.0045,
    "EPHEMERIS_TYPE": 0,
    "CLASSIFICATION_TYPE": "U",
    "NORAD_CAT_ID": 58909,
    "ELEMENT_SET_NO": 999,
    "REV_AT_EPOCH": 9,
    "BSTAR": 0,
    "MEAN_MOTION_DOT": -2.4e-06,
    "MEAN_MOTION_DDOT": 0
  },
  {
    "OBJECT_NAME": "2024-023F",
    "OBJECT_ID": "2024-023F",
    "EPOCH": "2024-02-03T15:50:26.361312",
    "MEAN_MOTION": 14.89495339,
    "ECCENTRICITY": 0.0009514,
    "INCLINATION": 49.9904,
    "RA_OF_ASC_NODE": 73.9108,
    "ARG_OF_PERICENTER": 277.3992,
    "MEAN_ANOMALY": 233.4088,
    "EPHEMERIS_TYPE": 0,
    "CLASSIFICATION_TYPE": "U",
    "NORAD_CAT_ID": 58910,
    "ELEMENT_SET_NO": 999,
    "REV_AT_EPOCH": 9,
    "BSTAR": 0,
    "MEAN_MOTION_DOT": -2.41e-06,
    "MEAN_MOTION_DDOT": 0
  },
  {
    "OBJECT_NAME": "2024-023G",
    "OBJECT_ID": "2024-023G",
    "EPOCH": "2024-02-03T15:50:19.034592",
    "MEAN_MOTION": 14.89732116,
    "ECCENTRICITY": 0.0008989,
    "INCLINATION": 50.0112,
    "RA_OF_ASC_NODE": 73.9101,
    "ARG_OF_PERICENTER": 284.9074,
    "MEAN_ANOMALY": 226.0147,
    "EPHEMERIS_TYPE": 0,
    "CLASSIFICATION_TYPE": "U",
    "NORAD_CAT_ID": 58911,
    "ELEMENT_SET_NO": 999,
    "REV_AT_EPOCH": 9,
    "BSTAR": 0,
    "MEAN_MOTION_DOT": -2.41e-06,
    "MEAN_MOTION_DDOT": 0
  },
  {
    "OBJECT_NAME": "2024-023H",
    "OBJECT_ID": "2024-023H",
    "EPOCH": "2024-02-03T15:50:19.478688",
    "MEAN_MOTION": 14.89848627,
    "ECCENTRICITY": 0.0010507,
    "INCLINATION": 49.9922,
    "RA_OF_ASC_NODE": 73.9102,
    "ARG_OF_PERICENTER": 284.6814,
    "MEAN_ANOMALY": 226.5527,
    "EPHEMERIS_TYPE": 0,
    "CLASSIFICATION_TYPE": "U",
    "NORAD_CAT_ID": 58912,
    "ELEMENT_SET_NO": 999,
    "REV_AT_EPOCH": 9,
    "BSTAR": 0,
    "MEAN_MOTION_DOT": -2.42e-06,
    "MEAN_MOTION_DDOT": 0
  },
  {
    "OBJECT_NAME": "2024-023J",
    "OBJECT_ID": "2024-023J",
    "EPOCH": "2024-02-03T14:09:49.057632",
    "MEAN_MOTION": 14.89921468,
    "ECCENTRICITY": 0.0010311,
    "INCLINATION": 50.0053,
    "RA_OF_ASC_NODE": 74.2329,
    "ARG_OF_PERICENTER": 286.9216,
    "MEAN_ANOMALY": 209.852,
    "EPHEMERIS_TYPE": 0,
    "CLASSIFICATION_TYPE": "U",
    "NORAD_CAT_ID": 58913,
    "ELEMENT_SET_NO": 999,
    "REV_AT_EPOCH": 8,
    "BSTAR": 0,
    "MEAN_MOTION_DOT": -2.42e-06,
    "MEAN_MOTION_DDOT": 0
  },
  {
    "OBJECT_NAME": "2024-023K",
    "OBJECT_ID": "2024-023K",
    "EPOCH": "2024-02-03T15:50:16.038240",
    "MEAN_MOTION": 14.8997755,
    "ECCENTRICITY": 0.0010905,
    "INCLINATION": 49.9955,
    "RA_OF_ASC_NODE": 73.9111,
    "ARG_OF_PERICENTER": 287.4817,
    "MEAN_ANOMALY": 223.8595,
    "EPHEMERIS_TYPE": 0,
    "CLASSIFICATION_TYPE": "U",
    "NORAD_CAT_ID": 58914,
    "ELEMENT_SET_NO": 999,
    "REV_AT_EPOCH": 9,
    "BSTAR": 0,
    "MEAN_MOTION_DOT": -2.42e-06,
    "MEAN_MOTION_DDOT": 0
  },
  {
    "OBJECT_NAME": "2024-023L",
    "OBJECT_ID": "2024-023L",
    "EPOCH": "2024-02-03T15:49:56.058240",
    "MEAN_MOTION": 14.90123857,
    "ECCENTRICITY": 0.0011324,
    "INCLINATION": 49.9994,
    "RA_OF_ASC_NODE": 73.9057,
    "ARG_OF_PERICENTER": 291.141,
    "MEAN_ANOMALY": 219.3031,
    "EPHEMERIS_TYPE": 0,
    "CLASSIFICATION_TYPE": "U",
    "NORAD_CAT_ID": 58915,
    "ELEMENT_SET_NO": 999,
    "REV_AT_EPOCH": 9,
    "BSTAR": 0,
    "MEAN_MOTION_DOT": -2.43e-06,
    "MEAN_MOTION_DDOT": 0
  }
]